start=new Date('2021-11-25T00:00:00.000Z').valueOf();
sats=[{"RCS_SIZE":"LARGE","ECCENTRICITY":"0.00017360","REV_AT_EPOCH":"8299","TIME_SYSTEM":"UTC","DECAY_DATE":null,"TLE_LINE1":"1 45709U 20035BE  21328.12085301  .00000105  00000-0  25954-4 0  9996","ARG_OF_PERICENTER":"68.2657","SITE":"AFETR","MEAN_MOTION":"15.06399618","ELEMENT_SET_NO":"999","PERIAPSIS":"546.012","OBJECT_NAME":"STARLINK-1421","COUNTRY_CODE":"US","EPOCH":"2021-11-24T02:54:01.700064","MEAN_ELEMENT_THEORY":"SGP4","MEAN_MOTION_DDOT":"0.0000000000000","OBJECT_ID":"2020-035BE","TLE_LINE2":"2 45709  53.0526 229.2131 0001736  68.2657 291.8516 15.06399618 82997","PERIOD":"95.592","RA_OF_ASC_NODE":"229.2131","SEMIMAJOR_AXIS":"6925.350","NORAD_CAT_ID":"45709","CENTER_NAME":"EARTH","CLASSIFICATION_TYPE":"U","INCLINATION":"53.0526","OBJECT_TYPE":"PAYLOAD","APOAPSIS":"548.417","EPHEMERIS_TYPE":"0","GP_ID":"190395505","FILE":"3223022","MEAN_ANOMALY":"291.8516","REF_FRAME":"TEME","BSTAR":"0.00002595400000","MEAN_MOTION_DOT":"0.00000105","LAUNCH_DATE":"2020-06-04"},{"CENTER_NAME":"EARTH","NORAD_CAT_ID":"45710","CLASSIFICATION_TYPE":"U","INCLINATION":"53.0535","GP_ID":"190396249","EPHEMERIS_TYPE":"0","APOAPSIS":"548.549","OBJECT_TYPE":"PAYLOAD","BSTAR":"0.00000711740000","REF_FRAME":"TEME","FILE":"3223022","MEAN_ANOMALY":"287.3949","LAUNCH_DATE":"2020-06-04","MEAN_MOTION_DOT":"-0.00000176","RCS_SIZE":"LARGE","ECCENTRICITY":"0.00019310","TIME_SYSTEM":"UTC","REV_AT_EPOCH":"8303","TLE_LINE1":"1 45710U 20035BF  21328.11716493 -.00000176  00000-0  71174-5 0  9995","DECAY_DATE":null,"SITE":"AFETR","MEAN_MOTION":"15.06400580","ARG_OF_PERICENTER":"72.7251","EPOCH":"2021-11-24T02:48:43.049952","COUNTRY_CODE":"US","PERIAPSIS":"545.874","OBJECT_NAME":"STARLINK-1423","ELEMENT_SET_NO":"999","MEAN_MOTION_DDOT":"0.0000000000000","MEAN_ELEMENT_THEORY":"SGP4","SEMIMAJOR_AXIS":"6925.347","RA_OF_ASC_NODE":"229.2426","PERIOD":"95.592","TLE_LINE2":"2 45710  53.0535 229.2426 0001931  72.7251 287.3949 15.06400580 83030","OBJECT_ID":"2020-035BF"},{"DECAY_DATE":null,"TLE_LINE1":"1 45711U 20035BG  21328.82856202 -.00010382  00000-0 -67841-3 0  9992","REV_AT_EPOCH":"8313","TIME_SYSTEM":"UTC","ECCENTRICITY":"0.00016700","RCS_SIZE":"LARGE","OBJECT_ID":"2020-035BG","PERIOD":"95.590","TLE_LINE2":"2 45711  53.0543 226.0523 0001670  67.2617 292.8548 15.06436731 83132","RA_OF_ASC_NODE":"226.0523","SEMIMAJOR_AXIS":"6925.236","MEAN_ELEMENT_THEORY":"SGP4","MEAN_MOTION_DDOT":"0.0000000000000","ELEMENT_SET_NO":"999","OBJECT_NAME":"STARLINK-1433","PERIAPSIS":"545.944","EPOCH":"2021-11-24T19:53:07.758528","COUNTRY_CODE":"US","ARG_OF_PERICENTER":"67.2617","MEAN_MOTION":"15.06436731","SITE":"AFETR","OBJECT_TYPE":"PAYLOAD","APOAPSIS":"548.257","EPHEMERIS_TYPE":"0","GP_ID":"190423720","INCLINATION":"53.0543","CLASSIFICATION_TYPE":"U","NORAD_CAT_ID":"45711","CENTER_NAME":"EARTH","MEAN_MOTION_DOT":"-0.00010382","LAUNCH_DATE":"2020-06-04","FILE":"3223205","REF_FRAME":"TEME","MEAN_ANOMALY":"292.8548","BSTAR":"-0.00067841000000"},{"MEAN_MOTION_DDOT":"0.0000000000000","MEAN_ELEMENT_THEORY":"SGP4","PERIOD":"95.592","TLE_LINE2":"2 45712  53.0546 226.0658 0001960  72.5267 287.5936 15.06398974 83146","RA_OF_ASC_NODE":"226.0658","SEMIMAJOR_AXIS":"6925.352","OBJECT_ID":"2020-035BH","MEAN_MOTION":"15.06398974","SITE":"AFETR","ARG_OF_PERICENTER":"72.5267","PERIAPSIS":"545.859","OBJECT_NAME":"STARLINK-1434","EPOCH":"2021-11-24T19:47:47.993856","COUNTRY_CODE":"US","ELEMENT_SET_NO":"999","TIME_SYSTEM":"UTC","REV_AT_EPOCH":"8314","TLE_LINE1":"1 45712U 20035BH  21328.82486104  .00001229  00000-0  10141-3 0  9992","DECAY_DATE":null,"RCS_SIZE":"LARGE","ECCENTRICITY":"0.00019600","BSTAR":"0.00010141000000","MEAN_ANOMALY":"287.5936","FILE":"3223205","REF_FRAME":"TEME","LAUNCH_DATE":"2020-06-04","MEAN_MOTION_DOT":"0.00001229","EPHEMERIS_TYPE":"0","APOAPSIS":"548.574","GP_ID":"190422468","OBJECT_TYPE":"PAYLOAD","NORAD_CAT_ID":"45712","CENTER_NAME":"EARTH","INCLINATION":"53.0546","CLASSIFICATION_TYPE":"U"},{"OBJECT_TYPE":"PAYLOAD","EPHEMERIS_TYPE":"0","APOAPSIS":"548.471","GP_ID":"190396006","NORAD_CAT_ID":"45713","CENTER_NAME":"EARTH","CLASSIFICATION_TYPE":"U","INCLINATION":"53.0537","FILE":"3223022","REF_FRAME":"TEME","MEAN_ANOMALY":"289.1828","BSTAR":"0.00000849780000","MEAN_MOTION_DOT":"-0.00000155","LAUNCH_DATE":"2020-06-04","REV_AT_EPOCH":"8273","TIME_SYSTEM":"UTC","DECAY_DATE":null,"TLE_LINE1":"1 45713U 20035BJ  21328.04897064 -.00000155  00000-0  84978-5 0  9997","RCS_SIZE":"LARGE","ECCENTRICITY":"0.00018340","MEAN_ELEMENT_THEORY":"SGP4","MEAN_MOTION_DDOT":"0.0000000000000","OBJECT_ID":"2020-035BJ","TLE_LINE2":"2 45713  53.0537 249.5519 0001834  70.9360 289.1828 15.06404123 82735","PERIOD":"95.592","SEMIMAJOR_AXIS":"6925.336","RA_OF_ASC_NODE":"249.5519","ARG_OF_PERICENTER":"70.9360","SITE":"AFETR","MEAN_MOTION":"15.06404123","ELEMENT_SET_NO":"999","OBJECT_NAME":"STARLINK-1436","PERIAPSIS":"545.931","EPOCH":"2021-11-24T01:10:31.063296","COUNTRY_CODE":"US"},{"BSTAR":"-0.00001431900000","REF_FRAME":"TEME","FILE":"3223205","MEAN_ANOMALY":"287.9935","LAUNCH_DATE":"2020-06-04","MEAN_MOTION_DOT":"-0.00000495","NORAD_CAT_ID":"45714","CENTER_NAME":"EARTH","INCLINATION":"53.0537","CLASSIFICATION_TYPE":"U","APOAPSIS":"548.624","EPHEMERIS_TYPE":"0","GP_ID":"190423470","OBJECT_TYPE":"PAYLOAD","SITE":"AFETR","MEAN_MOTION":"15.06402191","ARG_OF_PERICENTER":"72.1277","OBJECT_NAME":"STARLINK-1437","PERIAPSIS":"545.790","EPOCH":"2021-11-24T20:03:44.148960","COUNTRY_CODE":"US","ELEMENT_SET_NO":"999","MEAN_MOTION_DDOT":"0.0000000000000","MEAN_ELEMENT_THEORY":"SGP4","PERIOD":"95.592","TLE_LINE2":"2 45714  53.0537 226.0200 0002046  72.1277 287.9935 15.06402191 83144","RA_OF_ASC_NODE":"226.0200","SEMIMAJOR_AXIS":"6925.342","OBJECT_ID":"2020-035BK","RCS_SIZE":"LARGE","ECCENTRICITY":"0.00020460","TIME_SYSTEM":"UTC","REV_AT_EPOCH":"8314","TLE_LINE1":"1 45714U 20035BK  21328.83592765 -.00000495  00000-0 -14319-4 0  9994","DECAY_DATE":null},{"FILE":"3222344","MEAN_ANOMALY":"311.8791","REF_FRAME":"TEME","BSTAR":"0.00132430000000","MEAN_MOTION_DOT":"0.00179387","LAUNCH_DATE":"2020-06-04","CENTER_NAME":"EARTH","NORAD_CAT_ID":"45716","CLASSIFICATION_TYPE":"U","INCLINATION":"53.0009","OBJECT_TYPE":"PAYLOAD","GP_ID":"190313521","EPHEMERIS_TYPE":"0","APOAPSIS":"357.623","ARG_OF_PERICENTER":"48.2759","SITE":"AFETR","MEAN_MOTION":"15.71918379","ELEMENT_SET_NO":"999","EPOCH":"2021-11-23T12:03:24.639264","COUNTRY_CODE":"US","OBJECT_NAME":"STARLINK-1439","PERIAPSIS":"349.210","MEAN_ELEMENT_THEORY":"SGP4","MEAN_MOTION_DDOT":"0.0000000000000","OBJECT_ID":"2020-035BM","SEMIMAJOR_AXIS":"6731.552","RA_OF_ASC_NODE":"75.8841","TLE_LINE2":"2 45716  53.0009  75.8841 0006249  48.2759 311.8791 15.71918379 85106","PERIOD":"91.608","RCS_SIZE":"LARGE","ECCENTRICITY":"0.00062490","REV_AT_EPOCH":"8510","TIME_SYSTEM":"UTC","DECAY_DATE":null,"TLE_LINE1":"1 45716U 20035BM  21327.50236851  .00179387  00000-0  13243-2 0  9998"},{"FILE":"3223205","MEAN_ANOMALY":"275.9187","REF_FRAME":"TEME","BSTAR":"0.00016728000000","MEAN_MOTION_DOT":"0.00002212","LAUNCH_DATE":"2020-06-13","NORAD_CAT_ID":"45730","CENTER_NAME":"EARTH","CLASSIFICATION_TYPE":"U","INCLINATION":"53.0538","OBJECT_TYPE":"PAYLOAD","EPHEMERIS_TYPE":"0","APOAPSIS":"547.898","GP_ID":"190422469","ARG_OF_PERICENTER":"84.1918","SITE":"AFETR","MEAN_MOTION":"15.06406088","ELEMENT_SET_NO":"999","PERIAPSIS":"546.492","OBJECT_NAME":"STARLINK-1461","EPOCH":"2021-11-24T18:44:06.116640","COUNTRY_CODE":"US","MEAN_ELEMENT_THEORY":"SGP4","MEAN_MOTION_DDOT":"0.0000000000000","OBJECT_ID":"2020-038A","PERIOD":"95.592","TLE_LINE2":"2 45730  53.0538  66.2489 0001015  84.1918 275.9187 15.06406088 80182","SEMIMAJOR_AXIS":"6925.330","RA_OF_ASC_NODE":"66.2489","RCS_SIZE":"LARGE","ECCENTRICITY":"0.00010150","REV_AT_EPOCH":"8018","TIME_SYSTEM":"UTC","DECAY_DATE":null,"TLE_LINE1":"1 45730U 20038A   21328.78062635  .00002212  00000-0  16728-3 0  9999"},{"REV_AT_EPOCH":"8015","TIME_SYSTEM":"UTC","DECAY_DATE":null,"TLE_LINE1":"1 45731U 20038B   21328.66268775  .00000076  00000-0  23985-4 0  9990","RCS_SIZE":"LARGE","ECCENTRICITY":"0.00011220","MEAN_ELEMENT_THEORY":"SGP4","MEAN_MOTION_DDOT":"0.0000000000000","OBJECT_ID":"2020-038B","TLE_LINE2":"2 45731  53.0552  66.7945 0001122  64.2216 295.8889 15.06389897 80155","PERIOD":"95.593","RA_OF_ASC_NODE":"66.7945","SEMIMAJOR_AXIS":"6925.380","ARG_OF_PERICENTER":"64.2216","SITE":"AFETR","MEAN_MOTION":"15.06389897","ELEMENT_SET_NO":"999","PERIAPSIS":"546.467","OBJECT_NAME":"STARLINK-1465","COUNTRY_CODE":"US","EPOCH":"2021-11-24T15:54:16.221600","OBJECT_TYPE":"PAYLOAD","APOAPSIS":"548.022","EPHEMERIS_TYPE":"0","GP_ID":"190423216","NORAD_CAT_ID":"45731","CENTER_NAME":"EARTH","CLASSIFICATION_TYPE":"U","INCLINATION":"53.0552","MEAN_ANOMALY":"295.8889","FILE":"3223205","REF_FRAME":"TEME","BSTAR":"0.00002398500000","MEAN_MOTION_DOT":"0.00000076","LAUNCH_DATE":"2020-06-13"},{"REV_AT_EPOCH":"8015","TIME_SYSTEM":"UTC","DECAY_DATE":null,"TLE_LINE1":"1 45732U 20038C   21328.65162121 -.00001135  00000-0 -57334-4 0  9992","RCS_SIZE":"LARGE","ECCENTRICITY":"0.00012840","MEAN_ELEMENT_THEORY":"SGP4","MEAN_MOTION_DDOT":"0.0000000000000","OBJECT_ID":"2020-038C","RA_OF_ASC_NODE":"66.8342","SEMIMAJOR_AXIS":"6925.331","PERIOD":"95.592","TLE_LINE2":"2 45732  53.0555  66.8342 0001284  72.1945 287.9184 15.06405725 80156","ARG_OF_PERICENTER":"72.1945","SITE":"AFETR","MEAN_MOTION":"15.06405725","ELEMENT_SET_NO":"999","EPOCH":"2021-11-24T15:38:20.072544","COUNTRY_CODE":"US","PERIAPSIS":"546.307","OBJECT_NAME":"STARLINK-1466","OBJECT_TYPE":"PAYLOAD","GP_ID":"190423471","EPHEMERIS_TYPE":"0","APOAPSIS":"548.085","CENTER_NAME":"EARTH","NORAD_CAT_ID":"45732","CLASSIFICATION_TYPE":"U","INCLINATION":"53.0555","REF_FRAME":"TEME","FILE":"3223205","MEAN_ANOMALY":"287.9184","BSTAR":"-0.00005733400000","MEAN_MOTION_DOT":"-0.00001135","LAUNCH_DATE":"2020-06-13"}];
